OBJECT_NAME,OBJECT_ID,EPOCH,MEAN_MOTION,ECCENTRICITY,INCLINATION,RA_OF_ASC_NODE,ARG_OF_PERICENTER,MEAN_ANOMALY,EPHEMERIS_TYPE,CLASSIFICATION_TYPE,NORAD_CAT_ID,ELEMENT_SET_NO,REV_AT_EPOCH,BSTAR,MEAN_MOTION_DOT,MEAN_MOTION_DDOT
FENGYUN 3D,2017-072A,2026-06-06T05:22:12.823392,14.19736339,.0002664,99.0127,131.4487,79.3947,280.7528,0,U,43010,999,44343,-.47791902E-4,-.147E-5,0
NOAA 20 (JPSS-1),2017-073A,2026-06-06T03:30:51.111360,14.19509709,.0000566,98.7769,96.7074,38.1027,322.0189,0,U,43013,999,44290,.60753489E-4,.84E-6,0
GOES 17,2018-022A,2026-06-06T04:28:38.797824,1.00271155,.00006926,0.9091,85.9162,11.1423,135.2208,0,U,43226,999,3031,0,-.169E-5,0
SENTINEL-3B,2018-039A,2026-06-05T11:28:20.737920,14.26738325,.00009372,98.6250,224.1778,75.1452,284.9833,0,U,43437,999,42245,.68428198E-4,.122E-5,0
FENGYUN 2H,2018-050A,2026-06-06T00:09:40.661568,1.00271800,.00014396,3.0023,79.2032,126.5708,130.5331,0,U,43491,999,2932,0,-.118E-5,0
METOP-C,2018-087A,2026-06-06T00:24:47.266272,14.21509183,.00013349,98.6648,216.8245,141.8695,218.2577,0,U,43689,999,39324,.76147031E-4,.123E-5,0
GEO-KOMPSAT-2A,2018-100A,2026-06-05T22:40:55.233408,1.00272486,.00024485,0.0497,136.2948,305.6971,280.8748,0,U,43823,999,2751,0,-.331E-5,0
METEOR-M2 2,2019-038A,2026-06-06T06:52:12.927072,14.24363860,.0002347,98.9146,144.4114,63.8388,296.3031,0,U,44387,999,35974,.13187758E-3,.259E-5,0
ARKTIKA-M 1,2021-016A,2026-06-02T00:56:25.095840,2.00628509,.72832396,63.2379,59.8266,269.8643,14.6915,0,U,47719,999,3848,0,-.2E-5,0
FENGYUN 3E,2021-062A,2026-06-06T06:42:13.070016,14.19903409,.00026775,98.7493,160.8093,103.2064,256.9411,0,U,49008,999,25503,.5712073E-4,.77E-6,0
GOES 18,2022-021A,2026-06-05T23:07:49.243296,1.00272126,.00006007,0.0410,133.3665,353.4996,337.4782,0,U,51850,999,648,0,.109E-5,0
NOAA 21 (JPSS-2),2022-150A,2026-06-06T02:37:18.795648,14.19563548,.00010334,98.7057,96.0846,182.0405,178.0767,0,U,54234,999,18497,.57965173E-4,.79E-6,0
METEOSAT-12 (MTG-I1),2022-170C,2026-06-06T03:12:11.378592,1.00271541,.00035215,0.7256,21.0696,70.1166,210.9931,0,U,54743,999,1286,0,.4E-7,0
TIANMU-1 03,2023-039A,2026-06-06T07:31:38.069184,15.46971533,.00040503,97.5238,330.8599,125.6180,234.5447,0,U,55973,999,17915,.39792517E-3,.20004E-3,0
TIANMU-1 04,2023-039B,2026-06-06T05:49:21.747648,15.47555015,.00047248,97.5173,329.9394,123.5279,236.6423,0,U,55974,999,17915,.40149075E-3,.206E-3,0
TIANMU-1 05,2023-039C,2026-06-06T07:03:11.240640,15.46897823,.00037062,97.5218,330.4585,141.1984,218.9532,0,U,55975,999,17913,.38705883E-3,.19404E-3,0
TIANMU-1 06,2023-039D,2026-06-06T07:26:23.231904,15.47465888,.00039739,97.5226,331.1000,137.1182,223.0379,0,U,55976,999,17916,.39960153E-3,.20436E-3,0
FENGYUN 3G,2023-055A,2026-06-06T05:34:38.686944,15.54310028,.00055101,49.9930,42.4966,153.5012,206.6238,0,U,56232,999,17830,.51232037E-3,.33876E-3,0
METEOR-M2 3,2023-091A,2026-06-06T06:40:25.586688,14.24045937,.00037229,98.6086,212.4791,184.9954,175.1189,0,U,57166,999,15296,.22532089E-4,.9E-7,0
TIANMU-1 07,2023-101A,2026-06-06T07:22:08.376096,15.29680094,.00034236,97.2594,208.2260,144.3973,215.7497,0,U,57399,999,15998,.27961015E-3,.7969E-4,0
TIANMU-1 08,2023-101B,2026-06-06T04:59:56.980032,15.29685567,.0004972,97.2582,207.9017,142.3305,217.8284,0,U,57400,999,15996,.31372415E-3,.8954E-4,0
TIANMU-1 09,2023-101C,2026-06-06T04:36:21.976128,15.29711306,.00037777,97.2539,207.3072,152.8933,207.2506,0,U,57401,999,15996,.28656274E-3,.8177E-4,0
TIANMU-1 10,2023-101D,2026-06-06T05:23:39.912864,15.29682472,.00053687,97.2620,208.3787,155.6833,204.4662,0,U,57402,999,15996,.30642992E-3,.8743E-4,0
FENGYUN 3F,2023-111A,2026-06-06T08:00:53.551296,14.19937292,.00015633,98.6836,227.5446,101.0702,259.0650,0,U,57490,999,14732,.45201969E-4,.53E-6,0
ARKTIKA-M 2,2023-198A,2026-06-03T07:17:21.587712,2.00591941,.68985494,63.2209,155.9142,267.4684,18.7857,0,U,58584,999,1804,0,.15E-5,0
TIANMU-1 11,2023-205A,2026-06-06T07:20:52.045152,15.26881330,.00101532,97.3450,179.0347,51.7740,308.4411,0,U,58645,999,13586,.26223283E-3,.6861E-4,0
TIANMU-1 12,2023-205B,2026-06-06T08:12:10.901376,15.26843194,.00080568,97.3440,178.8277,39.3840,320.7983,0,U,58646,999,13585,.29906183E-3,.7823E-4,0
TIANMU-1 13,2023-205C,2026-06-06T07:22:39.118080,15.26697202,.0007252,97.3467,179.0648,20.9305,339.2229,0,U,58647,999,13584,.26566373E-3,.6909E-4,0
TIANMU-1 14,2023-205D,2026-06-06T07:01:48.415008,15.26741978,.00082144,97.3403,178.2409,24.5239,335.6389,0,U,58648,999,13584,.28105438E-3,.7325E-4,0
TIANMU-1 19,2023-208A,2026-06-06T05:52:37.318368,15.31406973,.00047642,97.4493,273.4911,12.1392,347.9963,0,U,58660,999,13565,.34681879E-3,.10448E-3,0
