FENGYUN 3D              
1 43010U 17072A   26157.22375953 -.00000147  00000+0 -47792-4 0  9998
2 43010  99.0127 131.4487 0002664  79.3947 280.7528 14.19736339443439
NOAA 20 (JPSS-1)        
1 43013U 17073A   26157.14642490  .00000084  00000+0  60753-4 0  9996
2 43013  98.7769  96.7074 0000566  38.1027 322.0189 14.19509709442909
GOES 17                 
1 43226U 18022A   26157.18656016 -.00000169  00000+0  00000+0 0  9999
2 43226   0.9091  85.9162 0000692  11.1423 135.2208  1.00271155 30318
SENTINEL-3B             
1 43437U 18039A   26156.47801780  .00000122  00000+0  68428-4 0  9993
2 43437  98.6250 224.1778 0000937  75.1452 284.9833 14.26738325422452
FENGYUN 2H              
1 43491U 18050A   26157.00672062 -.00000118  00000+0  00000+0 0  9998
2 43491   3.0023  79.2032 0001439 126.5708 130.5331  1.00271800 29321
METOP-C                 
1 43689U 18087A   26157.01721373  .00000123  00000+0  76147-4 0  9993
2 43689  98.6648 216.8245 0001334 141.8695 218.2577 14.21509183393243
GEO-KOMPSAT-2A          
1 43823U 18100A   26156.94508372 -.00000331  00000+0  00000+0 0  9994
2 43823   0.0497 136.2948 0002448 305.6971 280.8748  1.00272486 27516
METEOR-M2 2             
1 44387U 19038A   26157.28626073  .00000259  00000+0  13188-3 0  9991
2 44387  98.9146 144.4114 0002347  63.8388 296.3031 14.24363860359745
ARKTIKA-M 1             
1 47719U 21016A   26153.03917935 -.00000200  00000+0  00000+0 0  9993
2 47719  63.2379  59.8266 7283239 269.8643  14.6915  2.00628509 38489
FENGYUN 3E              
1 49008U 21062A   26157.27931794  .00000077  00000+0  57121-4 0  9998
2 49008  98.7493 160.8093 0002677 103.2064 256.9411 14.19903409255031
GOES 18                 
1 51850U 22021A   26156.96376439  .00000109  00000+0  00000+0 0  9991
2 51850   0.0410 133.3665 0000600 353.4996 337.4782  1.00272126  6481
NOAA 21 (JPSS-2)        
1 54234U 22150A   26157.10924532  .00000079  00000+0  57965-4 0  9996
2 54234  98.7057  96.0846 0001033 182.0405 178.0767 14.19563548184977
METEOSAT-12 (MTG-I1)    
1 54743U 22170C   26157.13346503  .00000004  00000+0  00000+0 0  9993
2 54743   0.7256  21.0696 0003521  70.1166 210.9931  1.00271541 12864
TIANMU-1 03             
1 55973U 23039A   26157.31363506  .00020004  00000+0  39793-3 0  9993
2 55973  97.5238 330.8599 0004050 125.6180 234.5447 15.46971533179150
TIANMU-1 04             
1 55974U 23039B   26157.24261282  .00020600  00000+0  40149-3 0  9993
2 55974  97.5173 329.9394 0004724 123.5279 236.6423 15.47555015179156
TIANMU-1 05             
1 55975U 23039C   26157.29388010  .00019404  00000+0  38706-3 0  9994
2 55975  97.5218 330.4585 0003706 141.1984 218.9532 15.46897823179131
TIANMU-1 06             
1 55976U 23039D   26157.30999111  .00020436  00000+0  39960-3 0  9997
2 55976  97.5226 331.1000 0003973 137.1182 223.0379 15.47465888179164
FENGYUN 3G              
1 56232U 23055A   26157.23239221  .00033876  00000+0  51232-3 0  9990
2 56232  49.9930  42.4966 0005510 153.5012 206.6238 15.54310028178308
METEOR-M2 3             
1 57166U 23091A   26157.27807392  .00000009  00000+0  22532-4 0  9995
2 57166  98.6086 212.4791 0003722 184.9954 175.1189 14.24045937152968
TIANMU-1 07             
1 57399U 23101A   26157.30704139  .00007969  00000+0  27961-3 0  9996
2 57399  97.2594 208.2260 0003423 144.3973 215.7497 15.29680094159985
TIANMU-1 08             
1 57400U 23101B   26157.20829838  .00008954  00000+0  31372-3 0  9998
2 57400  97.2582 207.9017 0004972 142.3305 217.8284 15.29685567159963
TIANMU-1 09             
1 57401U 23101C   26157.19192102  .00008177  00000+0  28656-3 0  9992
2 57401  97.2539 207.3072 0003777 152.8933 207.2506 15.29711306159967
TIANMU-1 10             
1 57402U 23101D   26157.22476751  .00008743  00000+0  30643-3 0  9990
2 57402  97.2620 208.3787 0005368 155.6833 204.4662 15.29682472159964
FENGYUN 3F              
1 57490U 23111A   26157.33395314  .00000053  00000+0  45202-4 0  9999
2 57490  98.6836 227.5446 0001563 101.0702 259.0650 14.19937292147324
ARKTIKA-M 2             
1 58584U 23198A   26154.30372208  .00000150  00000+0  00000+0 0  9990
2 58584  63.2209 155.9142 6898549 267.4684  18.7857  2.00591941 18047
TIANMU-1 11             
1 58645U 23205A   26157.30615793  .00006861  00000+0  26223-3 0  9993
2 58645  97.3450 179.0347 0010153  51.7740 308.4411 15.26881330135864
TIANMU-1 12             
1 58646U 23205B   26157.34179284  .00007823  00000+0  29906-3 0  9998
2 58646  97.3440 178.8277 0008056  39.3840 320.7983 15.26843194135851
TIANMU-1 13             
1 58647U 23205C   26157.30739720  .00006909  00000+0  26566-3 0  9995
2 58647  97.3467 179.0648 0007252  20.9305 339.2229 15.26697202135849
TIANMU-1 14             
1 58648U 23205D   26157.29292147  .00007325  00000+0  28105-3 0  9995
2 58648  97.3403 178.2409 0008214  24.5239 335.6389 15.26741978135848
TIANMU-1 19             
1 58660U 23208A   26157.24487637  .00010448  00000+0  34682-3 0  9994
2 58660  97.4493 273.4911 0004764  12.1392 347.9963 15.31406973135659
